{
  "type": "FeatureCollection",
  "features": [
    {
      "type": "Feature",
      "properties": {
        "norad_id": 29268,
        "name": "ARIRANG-2 (KOMPSAT-2)",
        "group": "resource",
        "lat": -74.18229636047218,
        "lon": -145.39991061201076,
        "alt_km": 676.9325113398163,
        "timestamp": "2025-12-23T14:49:08.985962+00:00",
        "meta_object_name": "ARIRANG-2 (KOMPSAT-2)",
        "meta_object_id": "2006-031A",
        "meta_epoch": "2025-12-23T07:32:09.236256",
        "meta_mean_motion": 14.64501358,
        "meta_eccentricity": 0.00131296,
        "meta_inclination": 97.8253,
        "meta_ra_of_asc_node": 185.2711,
        "meta_arg_of_pericenter": 272.7512,
        "meta_mean_anomaly": 212.0459,
        "meta_ephemeris_type": 0,
        "meta_classification_type": "U",
        "meta_norad_cat_id": 29268,
        "meta_element_set_no": 999,
        "meta_rev_at_epoch": 3573,
        "meta_bstar": 3.0448113e-05,
        "meta_mean_motion_dot": 1.16e-06,
        "meta_mean_motion_ddot": 0,
        "tle_line1": "1 29268U 06031A   25357.31399579  .00000116  00000+0  30448-4 0  9995",
        "tle_line2": "2 29268  97.8253 185.2711 0013129 272.7512 212.0459 14.64501358 35738"
      },
      "geometry": {
        "type": "Point",
        "coordinates": [
          -145.39991061201076,
          -74.18229636047218
        ]
      }
    },
    {
      "type": "Feature",
      "properties": {
        "norad_id": 29709,
        "name": "LAPAN-TUBSAT",
        "group": "resource",
        "lat": -32.9711420621393,
        "lon": -6.684205711475606,
        "alt_km": 615.1714413971949,
        "timestamp": "2025-12-23T14:49:08.985975+00:00",
        "meta_object_name": "LAPAN-TUBSAT",
        "meta_object_id": "2007-001A",
        "meta_epoch": "2025-12-23T06:53:12.442848",
        "meta_mean_motion": 14.85688572,
        "meta_eccentricity": 0.00133595,
        "meta_inclination": 98.1259,
        "meta_ra_of_asc_node": 347.6604,
        "meta_arg_of_pericenter": 42.924,
        "meta_mean_anomaly": 317.3014,
        "meta_ephemeris_type": 0,
        "meta_classification_type": "U",
        "meta_norad_cat_id": 29709,
        "meta_element_set_no": 999,
        "meta_rev_at_epoch": 2503,
        "meta_bstar": 0.00015946589,
        "meta_mean_motion_dot": 1.327e-05,
        "meta_mean_motion_ddot": 0,
        "tle_line1": "1 29709U 07001A   25357.28694957  .00001327  00000+0  15947-3 0  9998",
        "tle_line2": "2 29709  98.1259 347.6604 0013359  42.9240 317.3014 14.85688572 25038"
      },
      "geometry": {
        "type": "Point",
        "coordinates": [
          -6.684205711475606,
          -32.9711420621393
        ]
      }
    },
    {
      "type": "Feature",
      "properties": {
        "norad_id": 31113,
        "name": "HAIYANG-1B",
        "group": "resource",
        "lat": -51.92400581510451,
        "lon": 150.66441199440206,
        "alt_km": 802.279144490808,
        "timestamp": "2025-12-23T14:49:08.985986+00:00",
        "meta_object_name": "HAIYANG-1B",
        "meta_object_id": "2007-010A",
        "meta_epoch": "2025-12-23T05:20:38.753664",
        "meta_mean_motion": 14.30968284,
        "meta_eccentricity": 0.00137103,
        "meta_inclination": 98.3327,
        "meta_ra_of_asc_node": 341.0682,
        "meta_arg_of_pericenter": 8.0626,
        "meta_mean_anomaly": 352.0775,
        "meta_ephemeris_type": 0,
        "meta_classification_type": "U",
        "meta_norad_cat_id": 31113,
        "meta_element_set_no": 999,
        "meta_rev_at_epoch": 97546,
        "meta_bstar": 5.0548299e-05,
        "meta_mean_motion_dot": 9.1e-07,
        "meta_mean_motion_ddot": 0,
        "tle_line1": "1 31113U 07010A   25357.22267076  .00000091  00000+0  50548-4 0  9996",
        "tle_line2": "2 31113  98.3327 341.0682 0013710   8.0626 352.0775 14.30968284975466"
      },
      "geometry": {
        "type": "Point",
        "coordinates": [
          150.66441199440206,
          -51.92400581510451
        ]
      }
    },
    {
      "type": "Feature",
      "properties": {
        "norad_id": 31598,
        "name": "COSMO-SKYMED 1",
        "group": "resource",
        "lat": -40.882488313822876,
        "lon": -170.02175998345064,
        "alt_km": 586.8373185592382,
        "timestamp": "2025-12-23T14:49:08.985999+00:00",
        "meta_object_name": "COSMO-SKYMED 1",
        "meta_object_id": "2007-023A",
        "meta_epoch": "2025-12-23T06:58:35.496768",
        "meta_mean_motion": 14.95842337,
        "meta_eccentricity": 0.00014289,
        "meta_inclination": 97.884,
        "meta_ra_of_asc_node": 182.7596,
        "meta_arg_of_pericenter": 79.8006,
        "meta_mean_anomaly": 280.3375,
        "meta_ephemeris_type": 0,
        "meta_classification_type": "U",
        "meta_norad_cat_id": 31598,
        "meta_element_set_no": 999,
        "meta_rev_at_epoch": 348,
        "meta_bstar": 0.0003005743,
        "meta_mean_motion_dot": 3.299e-05,
        "meta_mean_motion_ddot": 0,
        "tle_line1": "1 31598U 07023A   25357.29068862  .00003299  00000+0  30057-3 0  9991",
        "tle_line2": "2 31598  97.8840 182.7596 0001428  79.8006 280.3375 14.95842337  3486"
      },
      "geometry": {
        "type": "Point",
        "coordinates": [
          -170.02175998345064,
          -40.882488313822876
        ]
      }
    },
    {
      "type": "Feature",
      "properties": {
        "norad_id": 31698,
        "name": "TERRASAR-X",
        "group": "resource",
        "lat": 12.652843993746075,
        "lon": -175.47791603927692,
        "alt_km": 509.4947579904574,
        "timestamp": "2025-12-23T14:49:08.986012+00:00",
        "meta_object_name": "TERRASAR-X",
        "meta_object_id": "2007-026A",
        "meta_epoch": "2025-12-22T11:12:42.874560",
        "meta_mean_motion": 15.19156937,
        "meta_eccentricity": 0.00019029,
        "meta_inclination": 97.4451,
        "meta_ra_of_asc_node": 1.7062,
        "meta_arg_of_pericenter": 89.1914,
        "meta_mean_anomaly": 270.9539,
        "meta_ephemeris_type": 0,
        "meta_classification_type": "U",
        "meta_norad_cat_id": 31698,
        "meta_element_set_no": 999,
        "meta_rev_at_epoch": 2639,
        "meta_bstar": 3.1918703e-05,
        "meta_mean_motion_dot": 6.03e-06,
        "meta_mean_motion_ddot": 0,
        "tle_line1": "1 31698U 07026A   25356.46716290  .00000603  00000+0  31919-4 0  9993",
        "tle_line2": "2 31698  97.4451   1.7062 0001902  89.1914 270.9539 15.19156937 26391"
      },
      "geometry": {
        "type": "Point",
        "coordinates": [
          -175.47791603927692,
          12.652843993746075
        ]
      }
    },
    {
      "type": "Feature",
      "properties": {
        "norad_id": 32060,
        "name": "WORLDVIEW-1 (WV-1)",
        "group": "resource",
        "lat": 15.078211998917455,
        "lon": 112.93858762916011,
        "alt_km": 492.7591196629319,
        "timestamp": "2025-12-23T14:49:08.986042+00:00",
        "meta_object_name": "WORLDVIEW-1 (WV-1)",
        "meta_object_id": "2007-041A",
        "meta_epoch": "2025-12-23T05:17:50.368704",
        "meta_mean_motion": 15.23921594,
        "meta_eccentricity": 0.00032781,
        "meta_inclination": 97.3827,
        "meta_ra_of_asc_node": 114.5499,
        "meta_arg_of_pericenter": 1.9713,
        "meta_mean_anomaly": 358.1537,
        "meta_ephemeris_type": 0,
        "meta_classification_type": "U",
        "meta_norad_cat_id": 32060,
        "meta_element_set_no": 999,
        "meta_rev_at_epoch": 1607,
        "meta_bstar": 0.00036124565,
        "meta_mean_motion_dot": 8.663e-05,
        "meta_mean_motion_ddot": 0,
        "tle_line1": "1 32060U 07041A   25357.22072186  .00008663  00000+0  36125-3 0  9995",
        "tle_line2": "2 32060  97.3827 114.5499 0003278   1.9713 358.1537 15.23921594 16070"
      },
      "geometry": {
        "type": "Point",
        "coordinates": [
          112.93858762916011,
          15.078211998917455
        ]
      }
    },
    {
      "type": "Feature",
      "properties": {
        "norad_id": 32289,
        "name": "YAOGAN-3",
        "group": "resource",
        "lat": -62.50842971907932,
        "lon": 39.48734881566335,
        "alt_km": 606.1091328661769,
        "timestamp": "2025-12-23T14:49:08.986057+00:00",
        "meta_object_name": "YAOGAN-3",
        "meta_object_id": "2007-055A",
        "meta_epoch": "2025-12-23T07:02:41.753184",
        "meta_mean_motion": 14.89907467,
        "meta_eccentricity": 0.00011932,
        "meta_inclination": 97.8348,
        "meta_ra_of_asc_node": 23.8229,
        "meta_arg_of_pericenter": 84.4761,
        "meta_mean_anomaly": 275.6593,
        "meta_ephemeris_type": 0,
        "meta_classification_type": "U",
        "meta_norad_cat_id": 32289,
        "meta_element_set_no": 999,
        "meta_rev_at_epoch": 97966,
        "meta_bstar": 0.00048392308,
        "meta_mean_motion_dot": 4.601e-05,
        "meta_mean_motion_ddot": 0,
        "tle_line1": "1 32289U 07055A   25357.29353881  .00004601  00000+0  48392-3 0  9991",
        "tle_line2": "2 32289  97.8348  23.8229 0001193  84.4761 275.6593 14.89907467979664"
      },
      "geometry": {
        "type": "Point",
        "coordinates": [
          39.48734881566335,
          -62.50842971907932
        ]
      }
    }
  ]
}